1 45394U 20019AL  22365.17297396  .00019106  00000-0  12970-2 0  9997
2 45394  53.0522 334.3442 0001661  60.7288 299.3867 15.06430492154224
1 45394U 20019AL  22365.30566468  .00019203  00000-0  13033-2 0  9990
2 45394  53.0533 333.7484 0001696  62.4045 297.7116 15.06435927154242
1 45394U 20019AL  22365.63739423  .00008025  00000-0  55662-3 0  9994
2 45394  53.0538 332.2580 0001822  62.0733 298.0440 15.06429232154290
1 45394U 20019AL  22365.63739423  .00008025  00000-0  55662-3 0  9994
2 45394  53.0538 332.2580 0001822  62.0733 298.0440 15.06429232154290
1 45394U 20019AL  23001.16817083 -.00000535  00000-0 -17028-4 0  9994
2 45394  53.0529 329.8773 0001750  63.8675 296.2494 15.06391847154378
1 45394U 20019AL  23001.36720533 -.00010527  00000-0 -68900-3 0  9995
2 45394  53.0530 328.9834 0001867  57.8528 302.2642 15.06391047154406
1 45394U 20019AL  23001.63260036  .00001836  00000-0  14216-3 0  9994
2 45394  53.0525 327.7914 0001917  64.8692 295.2496 15.06394200154448
1 45394U 20019AL  23002.29608143  .00009505  00000-0  65637-3 0  9996
2 45394  53.0537 324.8134 0002015  70.8845 289.2362 15.06384850154546
1 45394U 20019AL  23003.15858858  .00008675  00000-0  60047-3 0  9999
2 45394  53.0536 320.9402 0001800  65.4897 294.6280 15.06404574154677
1 45394U 20019AL  23003.82205667  .00004274  00000-0  30563-3 0  9998
2 45394  53.0552 317.9632 0001795  67.6332 292.4847 15.06402381154777
1 45394U 20019AL  23004.55186697  .00004489  00000-0  31998-3 0  9991
2 45394  53.0536 314.6857 0001738  66.0850 294.0321 15.06409607154882
1 45394U 20019AL  23004.88360684  .00014565  00000-0  99478-3 0  9990
2 45394  53.0535 313.1962 0001845  66.0323 294.0859 15.06396394154936
1 45394U 20019AL  23004.88360684  .00014565  00000-0  99478-3 0  9990
2 45394  53.0535 313.1962 0001845  66.0323 294.0859 15.06396394154936
1 45394U 20019AL  23005.21532681  .00004773  00000-0  33893-3 0  9995
2 45394  53.0528 311.7072 0001677  64.9722 295.1441 15.06418222154986
1 45394U 20019AL  23005.54705630  .00003783  00000-0  27260-3 0  9998
2 45394  53.0531 310.2179 0001625  67.4674 292.6486 15.06420545155038
1 45394U 20019AL  23005.81244242  .00002976  00000-0  21851-3 0  9998
2 45394  53.0544 309.0277 0001881  74.4924 285.6272 15.06417272155079
1 45394U 20019AL  23006.21052554 -.00001195  00000-0 -61357-4 0  9996
2 45394  53.0541 307.2385 0001018  76.5206 283.5896 15.06402664155139
1 45394U 20019AL  23006.54226882 -.00005488  00000-0 -34994-3 0  9994
2 45394  53.0531 305.7504 0001632  68.1655 291.9507 15.06386099155181
1 45394U 20019AL  23006.80765925 -.00004121  00000-0 -25805-3 0  9993
2 45394  53.0534 304.5587 0001446  67.7370 292.3772 15.06385553155222
1 45394U 20019AL  23007.20574004  .00000494  00000-0  52057-4 0  9991
2 45394  53.0525 302.7717 0001570  68.2596 291.8560 15.06395313155281
1 45394U 20019AL  23007.20574004  .00000494  00000-0  52057-4 0  9991
2 45394  53.0525 302.7717 0001570  68.2596 291.8560 15.06395313155281
1 45394U 20019AL  23007.80287246  .00005934  00000-0  41703-3 0  9995
2 45394  53.0533 300.0911 0002332  73.8872 286.2373 15.06389885155370
1 45394U 20019AL  23007.80287246  .00005934  00000-0  41703-3 0  9995
2 45394  53.0533 300.0911 0002332  73.8872 286.2373 15.06389885155370
1 45394U 20019AL  23008.53268702  .00006736  00000-0  47070-3 0  9996
2 45394  53.0541 296.8146 0001696  76.7979 283.3199 15.06400167155486
1 45394U 20019AL  23009.19615367  .00006760  00000-0  47217-3 0  9992
2 45394  53.0540 293.8372 0001771  72.5771 287.5411 15.06408258155584
1 45394U 20019AL  23010.19135595 -.00000699  00000-0 -28014-4 0  9996
2 45394  53.0530 289.3693 0001650  73.1360 286.9810 15.06396288155738
1 45394U 20019AL  23010.45674320  .00000377  00000-0  44178-4 0  9999
2 45394  53.0518 288.1787 0001429  73.6267 286.4879 15.06399619155775
1 45394U 20019AL  23010.78847454  .00001579  00000-0  12485-3 0  9995
2 45394  53.0516 286.6879 0001628  74.5882 285.5287 15.06404908155829
1 45394U 20019AL  23011.05386360  .00016629  00000-0  11324-2 0  9992
2 45394  53.0519 285.4982 0001697  72.1874 287.9300 15.06408043155865
1 45394U 20019AL  23011.45194477 -.00000323  00000-0 -27785-5 0  9999
2 45394  53.0532 283.7108 0002145  79.9361 280.1870 15.06396779155922
1 45394U 20019AL  23011.45194477 -.00000323  00000-0 -27785-5 0  9999
2 45394  53.0532 283.7108 0002145  79.9361 280.1870 15.06396779155922
1 45394U 20019AL  23011.78368763 -.00004542  00000-0 -28641-3 0  9993
2 45394  53.0514 282.2200 0001542  86.6607 273.4559 15.06377133155974
1 45394U 20019AL  23011.78368763 -.00004542  00000-0 -28641-3 0  9993
2 45394  53.0514 282.2200 0001542  86.6607 273.4559 15.06377133155974
1 45394U 20019AL  23012.11542086 -.00000737  00000-0 -30619-4 0  9994
2 45394  53.0523 280.7320 0001656  91.6000 268.5179 15.06387285156028
1 45394U 20019AL  23012.91159169  .00013881  00000-0  94906-3 0  9998
2 45394  53.0518 277.1571 0001750 101.4960 258.6225 15.06394444156140
1 45394U 20019AL  23013.44236842  .00011651  00000-0  79978-3 0  9996
2 45394  53.0524 274.7739 0001778  96.3136 263.8055 15.06399937156223
1 45394U 20019AL  23013.44236842  .00011651  00000-0  79978-3 0  9996
2 45394  53.0524 274.7739 0001778  96.3136 263.8055 15.06399937156223
1 45394U 20019AL  23013.70775698  .00008524  00000-0  59045-3 0  9990
2 45394  53.0511 273.5839 0001827  93.8335 266.2863 15.06399529156260
1 45394U 20019AL  23014.43757399  .00007291  00000-0  50786-3 0  9992
2 45394  53.0516 270.3058 0002178  90.7345 269.3893 15.06399159156378
1 45394U 20019AL  23015.10104008  .00010662  00000-0  73339-3 0  9995
2 45394  53.0516 267.3270 0001920  90.2307 269.8902 15.06408933156475
1 45394U 20019AL  23015.83085236  .00006584  00000-0  46039-3 0  9991
2 45394  53.0511 264.0493 0001795  92.5701 267.5493 15.06409142156589
1 45394U 20019AL  23015.89719806  .00008473  00000-0  58684-3 0  9992
2 45394  53.0521 263.7523 0001535  87.2228 272.8937 15.06412617156591
1 45394U 20019AL  23015.96354302  .00013332  00000-0  91167-3 0  9999
2 45394  53.0510 263.4552 0001368  92.0241 268.0904 15.06422279156609
1 45394U 20019AL  23016.62701602  .00003921  00000-0  28198-3 0  9999
2 45394  53.0519 260.4765 0001467  85.1771 274.9386 15.06397804156708
1 45394U 20019AL  23016.75970988 -.00004096  00000-0 -25631-3 0  9993
2 45394  53.0512 259.8797 0001297 105.3788 254.7345 15.06387925156728
1 45394U 20019AL  23016.75970988 -.00004096  00000-0 -25631-3 0  9993
2 45394  53.0512 259.8797 0001297 105.3788 254.7345 15.06387925156728
1 45394U 20019AL  23017.35683501  .00001447  00000-0  11601-3 0  9999
2 45394  53.0513 257.1997 0001286 105.3434 254.7697 15.06391832156810
1 45394U 20019AL  23017.88761281 -.00000051  00000-0  15463-4 0  9991
2 45394  53.0525 254.8187 0001435 113.0938 247.0202 15.06391076156894
1 45394U 20019AL  23018.02030565  .00000120  00000-0  26938-4 0  9997
2 45394  53.0521 254.2225 0001345 110.4689 249.6444 15.06393991156918
1 45394U 20019AL  23018.35203977  .00003292  00000-0  23981-3 0  9999
2 45394  53.0523 252.7336 0001366 111.6255 248.4880 15.06399907156960
1 45394U 20019AL  23018.88280588 -.00000464  00000-0 -12234-4 0  9990
2 45394  53.0521 250.3509 0001296 117.8056 242.3064 15.06416288157042
1 45394U 20019AL  23018.94915845  .00007064  00000-0  49249-3 0  9994
2 45394  53.0521 250.0532 0001339 114.4556 245.6573 15.06410506157050
1 45394U 20019AL  23019.34724095  .00003694  00000-0  26671-3 0  9993
2 45394  53.0520 248.2656 0001601  94.8256 265.2916 15.06405247157117
1 45394U 20019AL  23019.61262943  .00004306  00000-0  30773-3 0  9991
2 45394  53.0504 247.0765 0002039  89.9760 270.1463 15.06406960157157
1 45394U 20019AL  23020.34244675  .00002030  00000-0  15512-3 0  9991
2 45394  53.0505 243.7985 0001198  96.0833 264.0293 15.06398473157264
1 45394U 20019AL  23020.34244675  .00002030  00000-0  15512-3 0  9991
2 45394  53.0505 243.7985 0001198  96.0833 264.0293 15.06398473157264
1 45394U 20019AL  23021.86840265  .00015098  00000-0  10291-2 0  9992
2 45394  53.0508 236.9472 0001215  84.0073 276.1054 15.06442443157496
1 45394U 20019AL  23023.26169702 -.00004529  00000-0 -28540-3 0  9994
2 45394  53.0512 230.6910 0001278  70.1152 289.9975 15.06390404157709
1 45394U 20019AL  23024.52229830  .00002152  00000-0  16337-3 0  9992
2 45394  53.0517 225.0310 0001415  66.2343 293.8794 15.06386626157891
1 45394U 20019AL  23024.92037935  .00002986  00000-0  21934-3 0  9993
2 45394  53.0512 223.2445 0001418  68.1108 292.0031 15.06392235157953
1 45394U 20019AL  23025.71654199  .00002516  00000-0  18778-3 0  9999
2 45394  53.0514 219.6703 0001415  70.0292 290.0849 15.06397483158073
1 45394U 20019AL  23025.71654199  .00002516  00000-0  18778-3 0  9999
2 45394  53.0514 219.6703 0001415  70.0292 290.0849 15.06397483158073
1 45394U 20019AL  23026.51270413  .00002338  00000-0  17581-3 0  9994
2 45394  53.0517 216.0963 0001425  72.3012 287.8133 15.06399619158197
1 45394U 20019AL  23026.84443697  .00002100  00000-0  15982-3 0  9996
2 45394  53.0516 214.6064 0001410  74.1402 285.9742 15.06401843158243
1 45394U 20019AL  23027.50790779  .00000636  00000-0  61613-4 0  9991
2 45394  53.0507 211.6280 0001488  74.3498 285.7655 15.06397157158346
1 45394U 20019AL  23027.77329723  .00000385  00000-0  44778-4 0  9991
2 45394  53.0519 210.4366 0001425  75.4164 284.6983 15.06396161158384
1 45394U 20019AL  23027.83964276  .00000510  00000-0  53146-4 0  9995
2 45394  53.0518 210.1385 0001429  76.1330 283.9818 15.06397478158390
1 45394U 20019AL  23028.50311039  .00000553  00000-0  56026-4 0  9990
2 45394  53.0519 207.1598 0001441  76.4815 283.6334 15.06397734158494
1 45394U 20019AL  23028.83484155  .00000568  00000-0  56996-4 0  9998
2 45394  53.0522 205.6697 0001331  84.4702 275.6439 15.06400479158547
1 45394U 20019AL  23028.90118786  .00000587  00000-0  58262-4 0  9999
2 45394  53.0521 205.3717 0001324  84.7492 275.3648 15.06400944158554
1 45394U 20019AL  23029.49831678  .00000204  00000-0  32589-4 0  9996
2 45394  53.0523 202.6913 0001302  83.0235 277.0902 15.06391429158646
1 45394U 20019AL  23029.89639455  .00000550  00000-0  55786-4 0  9997
2 45394  53.0524 200.9041 0001310  82.2754 277.8384 15.06396554158709
1 45394U 20019AL  23030.49352234 -.00000591  00000-0 -20762-4 0  9995
2 45394  53.0525 198.2232 0001293  83.5379 276.5758 15.06392637158796
1 45394U 20019AL  23031.15698795  .00000108  00000-0  26148-4 0  9990
2 45394  53.0525 195.2448 0001278  84.1109 276.0026 15.06396356158899
1 45394U 20019AL  23031.42237644  .00000688  00000-0  65062-4 0  9993
2 45394  53.0528 194.0533 0001306  87.1274 272.9865 15.06394218158938
